address_name,category_group_code,category_group_name,category_name,distance,id,phone,place_name,place_url,road_address_name,x,y
서울 마포구 노고산동 106-5,CE7,카페,"서비스,산업 > 전문대행 > 공간대여 > 모임공간 > 토즈모임센터",,8126494,02-718-0113,토즈모임센터 신촌비즈센터,http://place.map.kakao.com/8126494,서울 마포구 서강로 136,126.935822805011,37.5541064375323
서울 마포구 노고산동 54-1,CE7,카페,음식점 > 카페 > 커피전문점 > 스타벅스,,1132693025,1522-3232,스타벅스 신촌오거리점,http://place.map.kakao.com/1132693025,서울 마포구 신촌로16길 10,126.934699199575,37.5551906225976
서울 마포구 노고산동 56-74,CE7,카페,음식점 > 카페 > 테마카페 > 디저트카페,,2064598955,02-332-8481,아우어베이커리 신촌숲길점,http://place.map.kakao.com/2064598955,서울 마포구 서강로 121,126.934009946062,37.553941456682
서울 마포구 노고산동 56-15,CE7,카페,음식점 > 카페,,1052299075,070-7762-1009,써밋컬쳐 신촌점,http://place.map.kakao.com/1052299075,서울 마포구 신촌로14안길 11,126.933722135832,37.554343140447
서울 마포구 창전동 2-86,CE7,카페,음식점 > 카페 > 테마카페 > 디저트카페,,1637508578,070-491-8670,피크니크 홍대 경의선숲길점,http://place.map.kakao.com/1637508578,서울 마포구 서강로13길 22,126.93264063367658,37.55387761361116
서울 마포구 창전동 2-31,CE7,카페,음식점 > 카페 > 테마카페 > 디저트카페,,671989710,070-4154-3388,릴리우드,http://place.map.kakao.com/671989710,서울 마포구 서강로11길 18,126.93265437066475,37.553703728883804
서울 마포구 노고산동 109-4,CE7,카페,음식점 > 카페 > 테마카페 > 디저트카페,,2000938255,070-8028-3523,크라클랭,http://place.map.kakao.com/2000938255,서울 마포구 서강로 122,126.9345310458,37.553355197221
서울 마포구 노고산동 54-63,CE7,카페,음식점 > 카페,,523426703,070-4015-6102,팬스페이스,http://place.map.kakao.com/523426703,서울 마포구 신촌로16길 22,126.934536637288,37.5547256178349
서울 마포구 노고산동 56-6,CE7,카페,음식점 > 카페 > 커피전문점,,21127675,02-336-7367,착한커피,http://place.map.kakao.com/21127675,서울 마포구 신촌로16길 30,126.93433318349,37.5544335816284
서울 마포구 노고산동 54-29,CE7,카페,음식점 > 카페,,1429289126,,아아수혈 신촌첨,http://place.map.kakao.com/1429289126,서울 마포구 신촌로12나길 36,126.934409761244,37.5548661030471
서울 마포구 노고산동 57-50,CE7,카페,음식점 > 카페,,1837946012,,웻커피 신촌,http://place.map.kakao.com/1837946012,서울 마포구 신촌로16길 29,126.93472280552812,37.55407700259484
서울 마포구 신수동 81-93,CE7,카페,음식점 > 카페 > 테마카페 > 디저트카페,,420288046,070-4246-6328,알레,http://place.map.kakao.com/420288046,서울 마포구 서강로16길 57,126.936757422341,37.5516382075926
서울 마포구 창전동 2-41,CE7,카페,음식점 > 카페 > 테마카페 > 디저트카페,,1045658545,010-3937-2241,삡삡,http://place.map.kakao.com/1045658545,서울 마포구 서강로11길 15,126.932677207417,37.553478492465
서울 마포구 노고산동 57-38,CE7,카페,음식점 > 카페 > 커피전문점 > 이디야커피,,13061999,02-3141-7724,이디야커피 신촌로터리점,http://place.map.kakao.com/13061999,서울 마포구 서강로 135,126.935424093884,37.5545098671027
서울 마포구 노고산동 56-42,CE7,카페,음식점 > 카페 > 테마카페,,1080255805,,살리다,http://place.map.kakao.com/1080255805,서울 마포구 신촌로12다길 8,126.932983721187,37.5549409860585
서울 마포구 창전동 2-39,CE7,카페,음식점 > 카페 > 테마카페 > 디저트카페,,453697075,,마이요거트립 신촌점,http://place.map.kakao.com/453697075,서울 마포구 서강로11길 9,126.932831282373,37.5532965786581
서울 마포구 서교동 9-12,CE7,카페,음식점 > 카페 > 테마카페 > 디저트카페,,1385325174,0507-1325-0981,그리디톰,http://place.map.kakao.com/1385325174,서울 마포구 와우산로32길 42,126.932605953798,37.554686689722
서울 마포구 노고산동 57-26,CE7,카페,음식점 > 카페 > 바나프레소,,612349494,070-8998-8973,바나프레소 신촌로터리점,http://place.map.kakao.com/612349494,서울 마포구 서강로 137,126.93570119853014,37.5547037328193
서울 마포구 창전동 2-36,CE7,카페,음식점 > 카페 > 테마카페,,396096203,02-2688-8170,힐링카페작은휴가 신촌본점,http://place.map.kakao.com/396096203,서울 마포구 서강로 111,126.933125723304,37.5530741993238
서울 마포구 신수동 81-136,CE7,카페,음식점 > 카페 > 테마카페 > 북카페 > 커피랑도서관,,1718030715,070-7756-1140,커피랑도서관 서강대점,http://place.map.kakao.com/1718030715,서울 마포구 백범로 28,126.936969825231,37.5520563842631
서울 마포구 노고산동 56-41,CE7,카페,음식점 > 카페,,1053736401,010-6663-6966,파보리튼,http://place.map.kakao.com/1053736401,서울 마포구 신촌로12다길 10,126.933072046513,37.5548842733107
서울 마포구 창전동 1-24,CE7,카페,음식점 > 카페 > 커피전문점,,25858776,02-324-8465,커피스토리,http://place.map.kakao.com/25858776,서울 마포구 서강로 115,126.933523891758,37.5532870596525
서울 마포구 노고산동 54-47,CE7,카페,음식점 > 카페 > 생과일전문점,,1528976051,02-6052-0988,과일디저트카페 프루츄,http://place.map.kakao.com/1528976051,서울 마포구 신촌로12다길 11,126.9332360541,37.554987980882
서울 마포구 노고산동 106-82,CE7,카페,음식점 > 카페 > 커피전문점,,597813016,02-706-7757,피키즈 도넛타임 신촌점,http://place.map.kakao.com/597813016,서울 마포구 서강로 138,126.935976671677,37.5541605809258
서울 마포구 노고산동 54-46,CE7,카페,음식점 > 카페 > 테마카페 > 무인카페,,945668130,,지금커피,http://place.map.kakao.com/945668130,서울 마포구 신촌로14길 24,126.933295955262,37.5550781144927
서울 마포구 동교동 186-16,CE7,카페,음식점 > 카페,,929443723,,포근한다락방,http://place.map.kakao.com/929443723,서울 마포구 신촌로12길 28,126.932499136403,37.5551695633978
서울 마포구 창전동 2-36,CE7,카페,음식점 > 카페,,275585760,02-2688-8170,작은휴가,http://place.map.kakao.com/275585760,서울 마포구 서강로 111,126.933133654037,37.5530642928389
서울 마포구 노고산동 109-4,CE7,카페,음식점 > 카페 > 커피전문점,,1373518853,010-5444-4359,텐트커피,http://place.map.kakao.com/1373518853,서울 마포구 서강로 122,126.934536708246,37.5533506953715
서울 마포구 노고산동 56-76,CE7,카페,음식점 > 카페,,241262928,02-6095-1477,스탠,http://place.map.kakao.com/241262928,서울 마포구 신촌로12길 35,126.932757457113,37.5548507576611
서울 마포구 노고산동 54-41,CE7,카페,음식점 > 카페,,1743481382,02-322-0807,단코,http://place.map.kakao.com/1743481382,서울 마포구 신촌로14길 19,126.933594702473,37.5551107188004
서울 마포구 신수동 66-2,CE7,카페,음식점 > 카페,,973434654,,NUGAfe,http://place.map.kakao.com/973434654,서울 마포구 서강로 106,126.933502101528,37.5523373956056
서울 마포구 신수동 81-93,CE7,카페,음식점 > 카페 > 테마카페 > 디저트카페,,161476983,070-4246-6328,알레케이크,http://place.map.kakao.com/161476983,서울 마포구 서강로16길 57,126.936757420818,37.5516400095879
서울 마포구 창전동 2-28,CE7,카페,음식점 > 카페,,73481456,,해드림찬카페,http://place.map.kakao.com/73481456,서울 마포구 서강로11길 12,126.932897867697,37.5535029450132
서울 마포구 노고산동 106-25,CE7,카페,음식점 > 카페,,1719859363,02-702-3535,카페픽처스메모리,http://place.map.kakao.com/1719859363,서울 마포구 백범로2길 21,126.93583666983,37.5537748779031
서울 마포구 노고산동 107-1,CE7,카페,음식점 > 카페,,732660387,070-7788-3215,마이디어콤부차,http://place.map.kakao.com/732660387,서울 마포구 서강로 144,126.93665769015632,37.5544835053987
서울 마포구 노고산동 109-38,CE7,카페,음식점 > 카페,,965738775,,카페크레아팜,http://place.map.kakao.com/965738775,서울 마포구 서강로18길 28,126.935905467368,37.5527297577804
서울 마포구 노고산동 57-45,CE7,카페,음식점 > 카페,,15966943,02-337-1926,동그라미,http://place.map.kakao.com/15966943,서울 마포구 신촌로18길 23,126.934844744912,37.5544050331011
서울 마포구 노고산동 57-1,CE7,카페,음식점 > 카페 > 커피전문점,,19038361,,빈스브로커피,http://place.map.kakao.com/19038361,서울 마포구 신촌로 94,126.935980433948,37.5550543726125
서울 마포구 신수동 81-93,CE7,카페,음식점 > 카페 > 테마카페 > 디저트카페,,368510102,010-2155-2461,달달오늘달,http://place.map.kakao.com/368510102,서울 마포구 서강로16길 57,126.93675742081842,37.55164000958793
서울 마포구 노고산동 56-25,CE7,카페,음식점 > 카페,,8152105,02-332-8955,해열제,http://place.map.kakao.com/8152105,서울 마포구 신촌로14길 29,126.933391321878,37.5547393932444
서울 마포구 노고산동 57-22,CE7,카페,음식점 > 카페 > 커피전문점,,24690566,,나루터커피앤호프,http://place.map.kakao.com/24690566,서울 마포구 신촌로18길 15,126.935075246261,37.5548304309487
서울 마포구 노고산동 54-59,CE7,카페,음식점 > 카페,,27456977,,카페이노,http://place.map.kakao.com/27456977,서울 마포구 신촌로12다길 3,126.932725486984,37.5551642865977
서울 마포구 노고산동 31-158,CE7,카페,음식점 > 카페,,1721520812,02-6929-0106,두드림,http://place.map.kakao.com/1721520812,서울 마포구 고산길 4,126.93768307034973,37.55307281823184
서울 마포구 신수동 63-14,CE7,카페,음식점 > 카페 > 커피전문점 > 스타벅스,,25115119,1522-3232,스타벅스 서강대점,http://place.map.kakao.com/25115119,서울 마포구 백범로 23,126.93766671300212,37.55233065760533
서울 마포구 노고산동 31-25,CE7,카페,음식점 > 카페,,27495056,,알레스카페,http://place.map.kakao.com/27495056,서울 마포구 백범로1길 16,126.937941042316,37.5545040088461
서울 마포구 노고산동 31-208,CE7,카페,음식점 > 카페,,1521650922,02-338-9949,나비카페,http://place.map.kakao.com/1521650922,서울 마포구 고산2길 6,126.937893463338,37.5531966360907
서울 마포구 노고산동 31-74,CE7,카페,음식점 > 카페,,1920277019,010-2483-6019,카페토브,http://place.map.kakao.com/1920277019,서울 마포구 백범로1길 8-15,126.937900973304,37.5536930898363
서울 마포구 신수동 81-77,CE7,카페,음식점 > 카페 > 커피전문점 > 메가MGC커피,,1548814358,02-702-7778,메가MGC커피 서강대점,http://place.map.kakao.com/1548814358,서울 마포구 백범로 34,126.93733338019517,37.551716000509586
서울 마포구 노고산동 31-90,CE7,카페,음식점 > 카페 > 커피전문점 > 컴포즈커피,,1908906071,070-7711-0010,컴포즈커피 서강대점,http://place.map.kakao.com/1908906071,서울 마포구 백범로 13,126.937394226609,37.5533846809881
서울 마포구 노고산동 31-4,CE7,카페,음식점 > 카페,,14809541,02-711-0314,커피쏭,http://place.map.kakao.com/14809541,서울 마포구 신촌로20길 6,126.937981437736,37.5549220929668
서울 마포구 신수동 63-8,CE7,카페,음식점 > 카페 > 커피전문점,,2045427100,,커피브레이크,http://place.map.kakao.com/2045427100,서울 마포구 백범로 29,126.937716684126,37.5521180484469
서울 마포구 노고산동 31-34,CE7,카페,음식점 > 카페 > 테마카페,,287880072,02-701-0735,랭귀지랩,http://place.map.kakao.com/287880072,서울 마포구 백범로1길 10,126.937746599561,37.5542480231491
서울 마포구 노고산동 31-76,CE7,카페,음식점 > 카페,,1452953484,010-3177-2703,에이닐,http://place.map.kakao.com/1452953484,서울 마포구 고산길 13,126.93786713581,37.5535561203717
서울 마포구 노고산동 31-90,CE7,카페,음식점 > 카페 > 테마카페 > 디저트카페,,1196250826,0505-282-0902,멜로디케이크,http://place.map.kakao.com/1196250826,서울 마포구 백범로 13,126.937496027843,37.5534469037708
서울 마포구 노고산동 31-191,CE7,카페,음식점 > 카페 > 테마카페 > 디저트카페,,72590855,0507-1479-0422,에피,http://place.map.kakao.com/72590855,서울 마포구 백범로1길 3,126.93736510460249,37.554375763063234
서울 마포구 신수동 1-1,CE7,카페,음식점 > 카페 > 커피전문점 > 투썸플레이스,,13064311,02-717-2748,투썸플레이스 서강대점,http://place.map.kakao.com/13064311,서울 마포구 백범로 35,126.938984039354,37.5522772858055
서울 마포구 노고산동 31-72,CE7,카페,음식점 > 카페,,1094157085,0507-1349-9638,카페 안온,http://place.map.kakao.com/1094157085,서울 마포구 고산길 19,126.93817257614,37.5537013413484
서울 마포구 노고산동 31-66,CE7,카페,음식점 > 카페,,438877737,010-8677-9982,내안에카페in,http://place.map.kakao.com/438877737,서울 마포구 백범로1길 8-9,126.937801174972,37.5539435146835
서울 마포구 노고산동 33-11,CE7,카페,음식점 > 카페 > 테마카페 > 디저트카페,,4799614,02-717-1008,헤이밀크바,http://place.map.kakao.com/4799614,서울 마포구 신촌로20길 23,126.938586323806,37.5542583738752
서울 마포구 노고산동 31-61,CE7,카페,음식점 > 카페 > 커피전문점 > 카페게이트,,308696744,,카페게이트 신촌캠퍼스,http://place.map.kakao.com/308696744,서울 마포구 고산길 23,126.938337774115,37.5537392696422
서울 마포구 신수동 81-54,CE7,카페,음식점 > 카페,,26813795,02-716-4160,헤븐리모멘츠,http://place.map.kakao.com/26813795,서울 마포구 백범로 30,126.937232514401,37.5518907405582
서울 마포구 노고산동 33-12,CE7,카페,음식점 > 카페,,24750658,02-3274-1212,더나더나,http://place.map.kakao.com/24750658,서울 마포구 고산길 31,126.93886495311469,37.55398011017575
서울 마포구 신수동 1-1,CE7,카페,음식점 > 카페,,13101807,02-706-6201,카페끼니,http://place.map.kakao.com/13101807,서울 마포구 백범로 35,126.938984051106,37.5522628698436
서울 서대문구 창천동 72-12,CE7,카페,음식점 > 카페 > 커피전문점 > 스타벅스,,1907611374,1522-3232,스타벅스 신촌역점,http://place.map.kakao.com/1907611374,서울 서대문구 신촌로 73,126.93468241875944,37.55626370127929
서울 서대문구 창천동 72-14,CE7,카페,음식점 > 카페 > 테마카페,,1338191979,02-6953-8325,세라젬웰카페 서울신촌직영점,http://place.map.kakao.com/1338191979,서울 서대문구 신촌로 73,126.934535243804,37.5563185806091
서울 마포구 노고산동 49-25,CE7,카페,음식점 > 카페 > 커피전문점 > 투썸플레이스,,763496937,02-6402-2366,투썸플레이스 신촌대로점,http://place.map.kakao.com/763496937,서울 마포구 신촌로 74,126.934005996666,37.5558533713274
서울 서대문구 창천동 62-31,CE7,카페,음식점 > 카페,,26967143,02-333-9467,파티오,http://place.map.kakao.com/26967143,서울 서대문구 연세로5다길 28,126.934009665535,37.5568264505199
서울 마포구 노고산동 49-39,CE7,카페,음식점 > 카페 > 커피전문점,,751832575,010-569-6815,콜린스커피,http://place.map.kakao.com/751832575,서울 마포구 신촌로12가길 18,126.933517287142,37.5556260458059
서울 서대문구 창천동 62-21,CE7,카페,음식점 > 카페,,26533401,,몰리스,http://place.map.kakao.com/26533401,서울 서대문구 연세로5다길 22-7,126.934439649847,37.5569203937734
서울 서대문구 창천동 72-12,CE7,카페,음식점 > 카페 > 커피전문점 > 카페인중독,,1051657673,070-4176-3000,카페인중독 신촌점,http://place.map.kakao.com/1051657673,서울 서대문구 신촌로 73,126.93428511606501,37.5563319566212
서울 서대문구 창천동 72-12,CE7,카페,음식점 > 카페,,1714488387,02-322-3339,과일에반하다프루타 신촌점,http://place.map.kakao.com/1714488387,서울 서대문구 신촌로 73,126.93433369813654,37.55642658837212
서울 마포구 노고산동 54-21,CE7,카페,음식점 > 카페 > 테마카페 > 디저트카페,,2063873945,,요거티 신촌점,http://place.map.kakao.com/2063873945,서울 마포구 신촌로14길 11,126.933790202807,37.5554369896905
서울 마포구 노고산동 49-31,CE7,카페,음식점 > 카페 > 커피전문점 > 이디야커피,,429499575,02-332-7208,이디야커피 신촌하나로마트점,http://place.map.kakao.com/429499575,서울 마포구 신촌로 66,126.93304940236956,37.5561600728965
서울 서대문구 창천동 72-22,CE7,카페,음식점 > 카페 > 커피전문점 > 달리는커피,,873230551,02-6953-0004,달리는커피 서울신촌점,http://place.map.kakao.com/873230551,서울 서대문구 신촌로 63,126.93375295127237,37.55660736441959
서울 마포구 노고산동 54-80,CE7,카페,음식점 > 카페,,1749072821,,국민우유집,http://place.map.kakao.com/1749072821,서울 마포구 신촌로12길 23,126.93272980980169,37.555391340433204
서울 서대문구 창천동 72-36,CE7,카페,음식점 > 카페,,697241609,070-8711-0070,단데농,http://place.map.kakao.com/697241609,서울 서대문구 신촌로 57,126.932934514885,37.5568087257706
서울 서대문구 창천동 72-36,CE7,카페,음식점 > 카페 > 테마카페 > 디저트카페,,1471474161,,and커피바,http://place.map.kakao.com/1471474161,서울 서대문구 신촌로 57,126.932932286101,37.5567699816216
서울 서대문구 창천동 72-36,CE7,카페,음식점 > 카페,,1847558768,,아날로그네버다이스,http://place.map.kakao.com/1847558768,서울 서대문구 신촌로 57,126.93294356326021,37.556815037890786
서울 마포구 노고산동 49-32,CE7,카페,음식점 > 카페 > 테마카페 > 라이브카페,,295233073,02-334-9981,푸른굴뚝,http://place.map.kakao.com/295233073,서울 마포구 신촌로14길 12,126.933630483069,37.5556008815596
서울 마포구 동교동 185-6,CE7,카페,음식점 > 카페 > 테마카페 > 갤러리카페,,1147722261,,갤러리카페900,http://place.map.kakao.com/1147722261,서울 마포구 신촌로12길 4,126.932529916629,37.556176896138
서울 마포구 동교동 185-1,CE7,카페,음식점 > 카페,,5652164,,이티씨 커피앤칼라,http://place.map.kakao.com/5652164,서울 마포구 신촌로 62,126.932679141465,37.5563607847768
서울 마포구 노고산동 54-56,CE7,카페,음식점 > 카페,,2123978038,,12th Avenue,http://place.map.kakao.com/2123978038,서울 마포구 신촌로12길 25,126.93276156629696,37.55531567473186
서울 서대문구 창천동 72-36,CE7,카페,음식점 > 카페,,2040224373,,오모플라타,http://place.map.kakao.com/2040224373,서울 서대문구 신촌로 57,126.93295035701,37.5568114377599
서울 서대문구 창천동 72-36,CE7,카페,음식점 > 카페,,1191902348,,커들리홈커피랩,http://place.map.kakao.com/1191902348,서울 서대문구 신촌로 57,126.9329095945,37.5568330385394
서울 서대문구 창천동 30-10,CE7,카페,음식점 > 카페 > 테마카페 > 디저트카페,,1042307963,0507-1430-3688,커피크레페 본점,http://place.map.kakao.com/1042307963,서울 서대문구 신촌로 87-8,126.936319262007,37.5558654535892
서울 서대문구 창천동 62-2,CE7,카페,음식점 > 카페 > 커피전문점,,8581817,,파파,http://place.map.kakao.com/8581817,서울 서대문구 연세로5길 28,126.935440510048,37.5564704466186
서울 서대문구 창천동 30-20,CE7,카페,음식점 > 카페 > 커피전문점 > 이디야커피,,24757193,02-3144-3914,이디야커피 신촌역점,http://place.map.kakao.com/24757193,서울 서대문구 신촌로 87-20,126.93637313351134,37.55639707109582
서울 서대문구 창천동 72-6,CE7,카페,음식점 > 카페 > 커피전문점 > 메가MGC커피,,1254899116,02-332-8394,메가MGC커피 신촌로터리점,http://place.map.kakao.com/1254899116,서울 서대문구 신촌로 75,126.934942872897,37.5560881505864
서울 서대문구 창천동 30-7,CE7,카페,음식점 > 카페 > 커피전문점 > 할리스,,101900827,02-322-3684,할리스 신촌연세로점,http://place.map.kakao.com/101900827,서울 서대문구 연세로 5,126.93653979605108,37.55604847480273
서울 서대문구 창천동 30-11,CE7,카페,음식점 > 카페 > 커피전문점,,130759939,02-333-5661,논탄토 신촌점,http://place.map.kakao.com/130759939,서울 서대문구 신촌로 87-4,126.936271826405,37.5557510013203
서울 서대문구 창천동 30-45,CE7,카페,음식점 > 카페 > 커피전문점,,1079548967,,챔스빈 신촌점,http://place.map.kakao.com/1079548967,서울 서대문구 신촌로 87-12,126.93639152713,37.5560610089831
서울 마포구 노고산동 57-12,CE7,카페,음식점 > 카페 > 커피전문점 > 할리스,,876515279,02-325-7588,할리스 신촌역점,http://place.map.kakao.com/876515279,서울 마포구 신촌로 88,126.93534412629374,37.55537478101101
서울 서대문구 창천동 30-1,CE7,카페,음식점 > 카페 > 테마카페 > 북카페,,806151975,02-3145-1709,통인동커피공방 로스팅라이브러리,http://place.map.kakao.com/806151975,서울 서대문구 연세로 13,126.936576534929,37.5567665894352
서울 서대문구 창천동 30-6,CE7,카페,음식점 > 카페 > 커피전문점,,89421634,,비엔나커피하우스 신촌점,http://place.map.kakao.com/89421634,서울 서대문구 연세로 9,126.93664473302,37.5564206430754
서울 서대문구 창천동 30-8,CE7,카페,음식점 > 카페 > 커피전문점,,1821737764,,트리클커피,http://place.map.kakao.com/1821737764,서울 서대문구 연세로 3-3,126.936588603725,37.5558800145072
서울 서대문구 창천동 30-1,CE7,카페,음식점 > 카페,,1628405756,,팝퍼블 현대백화점 신촌점,http://place.map.kakao.com/1628405756,서울 서대문구 연세로 13,126.93648036729424,37.55672959684883
서울 서대문구 창천동 30-1,CE7,카페,음식점 > 카페 > 테마카페,,1171087377,,팝버블 카페 신촌점,http://place.map.kakao.com/1171087377,서울 서대문구 연세로 13,126.93661051346454,37.556735973773996
서울 서대문구 창천동 30-33,CE7,카페,음식점 > 카페 > 커피전문점 > 스타벅스,,1864551274,1522-3232,스타벅스 현대신촌점,http://place.map.kakao.com/1864551274,서울 서대문구 신촌로 83,126.93570925922158,37.55585971703117
서울 서대문구 창천동 62-1,CE7,카페,음식점 > 카페 > 테마카페,,303801931,,브이알지카페,http://place.map.kakao.com/303801931,서울 서대문구 연세로5길 26,126.93543136899,37.5565713533214
서울 서대문구 창천동 62-1,CE7,카페,음식점 > 카페 > 테마카페,,22262494,02-3144-3760,암흑카페,http://place.map.kakao.com/22262494,서울 서대문구 연세로5길 26,126.93542232121168,37.55656414039453
서울 서대문구 창천동 30-11,CE7,카페,음식점 > 카페 > 커피전문점,,2016047755,02-3144-2615,신촌브루스,http://place.map.kakao.com/2016047755,서울 서대문구 신촌로 87-4,126.936274090647,37.5557501015449
서울 마포구 노고산동 49-1,CE7,카페,음식점 > 카페 > 커피전문점 > 카페게이트,,1041218547,,카페게이트 신촌점,http://place.map.kakao.com/1041218547,서울 마포구 신촌로 84,126.934947871367,37.5555457528827
서울 서대문구 창천동 72-1,CE7,카페,음식점 > 카페 > 커피전문점 > 매머드익스프레스,,1505825990,,매머드익스프레스 신촌점,http://place.map.kakao.com/1505825990,서울 서대문구 연세로5길 38,126.9352778289515,37.55613428553795
서울 서대문구 창천동 30-33,CE7,카페,음식점 > 카페 > 테마카페 > 디저트카페,,1548577883,,타타스베이글,http://place.map.kakao.com/1548577883,서울 서대문구 신촌로 83,126.935813139651,37.5561390827472
서울 서대문구 창천동 62-4,CE7,카페,음식점 > 카페 > 팔공티,,103579982,,팔공티 신촌점,http://place.map.kakao.com/103579982,서울 서대문구 연세로5길 32,126.935363644548,37.556362284883
서울 서대문구 창천동 30-1,CE7,카페,음식점 > 카페,,487185561,02-3145-1522,랑데자뷰 신촌유플렉스점,http://place.map.kakao.com/487185561,서울 서대문구 연세로 13,126.93661833728709,37.55685220662538
서울 서대문구 창천동 30-33,CE7,카페,음식점 > 카페 > 공차,,19749730,,공차 현대신촌점,http://place.map.kakao.com/19749730,서울 서대문구 신촌로 83,126.93549752848618,37.55597042423635
서울 서대문구 창천동 72-6,CE7,카페,음식점 > 카페,,723545087,,코티커피 신촌역점,http://place.map.kakao.com/723545087,서울 서대문구 신촌로 75,126.934947409266,37.556077341117
서울 서대문구 창천동 30-33,CE7,카페,음식점 > 카페,,1543294357,02-3145-2092,카페몬지 현대백화점 신촌점,http://place.map.kakao.com/1543294357,서울 서대문구 신촌로 83,126.93589477722064,37.55596163061015
서울 서대문구 창천동 30-33,CE7,카페,음식점 > 카페 > 커피전문점,,25767160,02-3145-2410,띵크커피 신촌현대점,http://place.map.kakao.com/25767160,서울 서대문구 신촌로 83,126.93587199493679,37.556133708743424
서울 서대문구 창천동 30,CE7,카페,음식점 > 카페,,7854940,,롬,http://place.map.kakao.com/7854940,,126.936617232243,37.556820671127
서울 서대문구 창천동 62-59,CE7,카페,음식점 > 카페,,9186215,02-335-2281,스윙,http://place.map.kakao.com/9186215,서울 서대문구 연세로5다길 14,126.934783992368,37.5565890174676
서울 서대문구 창천동 30-33,CE7,카페,음식점 > 카페 > 테마카페 > 디저트카페,,1630937893,,그로서리스터프 신촌점,http://place.map.kakao.com/1630937893,서울 서대문구 신촌로 83,126.93589033439234,37.55586341947828
서울 서대문구 창천동 30-33,CE7,카페,음식점 > 카페 > 커피전문점,,1330386796,,더치랩카페 현대백화점 신촌점,http://place.map.kakao.com/1330386796,서울 서대문구 신촌로 83,126.93582568618216,37.55602556389455
서울 서대문구 창천동 62-15,CE7,카페,음식점 > 카페,,15635395,070-7651-5625,아이프렌즈,http://place.map.kakao.com/15635395,서울 서대문구 연세로5길 26-17,126.934783791352,37.5568196726658
서울 서대문구 창천동 30-33,CE7,카페,음식점 > 카페,,612631595,,카페H 현대백화점신촌점,http://place.map.kakao.com/612631595,서울 서대문구 신촌로 83,126.93584251554,37.5561967625459
서울 마포구 노고산동 31-11,CE7,카페,음식점 > 카페,,1896468843,,하우 신촌역점,http://place.map.kakao.com/1896468843,서울 마포구 신촌로 지하 90,126.936085406763,37.5553796895927
서울 서대문구 창천동 30-33,CE7,카페,음식점 > 카페,,26569450,,더팬 신촌점,http://place.map.kakao.com/26569450,서울 서대문구 신촌로 83,126.935884424042,37.5561571414255
서울 서대문구 창천동 62-28,CE7,카페,음식점 > 카페 > 테마카페 > 디저트카페,,1692202286,0507-1466-5574,헤이진,http://place.map.kakao.com/1692202286,서울 서대문구 연세로5나길 37,126.934145280922,37.5570481715647
서울 서대문구 창천동 53-29,CE7,카페,음식점 > 카페 > 테마카페 > 디저트카페,,374927317,02-517-5480,디베티,http://place.map.kakao.com/374927317,서울 서대문구 연세로7안길 47,126.93414418824895,37.55828974502928
서울 서대문구 창천동 53-91,CE7,카페,음식점 > 카페,,693248561,,블랙번즈,http://place.map.kakao.com/693248561,서울 서대문구 연세로7안길 42,126.93456061556817,37.55836566031882
서울 서대문구 창천동 112-2,CE7,카페,음식점 > 카페 > 테마카페 > 디저트카페,,902573650,010-7940-1177,베지밍베이크,http://place.map.kakao.com/902573650,서울 서대문구 신촌로11길 7,126.932769031187,37.5570843368183
서울 서대문구 창천동 67-13,CE7,카페,음식점 > 카페 > 커피전문점 > 포트캔커피,,1898234620,02-336-0831,포트캔커피 신촌점,http://place.map.kakao.com/1898234620,서울 서대문구 신촌로11길 35,126.933247841094,37.5582676177402
서울 서대문구 창천동 53-3,CE7,카페,"가정,생활 > 여가시설 > 보드카페",,348667076,010-3478-4404,밀짚모자 해적단TCG,http://place.map.kakao.com/348667076,서울 서대문구 연세로9길 37,126.934583105386,37.5585323572328
서울 서대문구 창천동 57-42,CE7,카페,"가정,생활 > 여가시설 > 만화방 > 만화카페 > 벌툰",,864693294,070-4895-3880,벌툰 플레이플러스 신촌직영점,http://place.map.kakao.com/864693294,서울 서대문구 연세로5가길 8-3,126.936182159363,37.5573826590523
서울 서대문구 창천동 57-61,CE7,카페,음식점 > 카페 > 커피전문점,,1011256721,010-4258-1181,더파이홀,http://place.map.kakao.com/1011256721,서울 서대문구 연세로5나길 20,126.93506654602719,37.55703156286427
서울 서대문구 창천동 33-43,CE7,카페,음식점 > 카페 > 테마카페 > 디저트카페 > 설빙,,24879347,070-7716-8970,설빙 신촌점,http://place.map.kakao.com/24879347,서울 서대문구 연세로 23,126.9366888686437,37.5577613506593
서울 서대문구 창천동 33-36,CE7,카페,음식점 > 카페 > 테마카페 > 고양이카페,,12811871,010-2618-9747,고양이다락방,http://place.map.kakao.com/12811871,서울 서대문구 연세로 25-1,126.93672036385163,37.55799112181181
서울 서대문구 창천동 31-40,CE7,카페,음식점 > 카페 > 커피전문점 > 메가MGC커피,,1843190721,02-336-6051,메가MGC커피 신촌점,http://place.map.kakao.com/1843190721,서울 서대문구 연세로5가길 8-6,126.936557727179,37.5575918927999
서울 서대문구 창천동 33-9,CE7,카페,음식점 > 카페 > 커피전문점 > 스타벅스,,10538286,1522-3232,스타벅스 연대점,http://place.map.kakao.com/10538286,서울 서대문구 연세로 35,126.936715226399,37.558712817702
서울 서대문구 창천동 33-30,CE7,카페,음식점 > 카페 > 공차,,19749731,02-3143-0404,공차 신촌연세로점,http://place.map.kakao.com/19749731,서울 서대문구 연세로 27,126.93673956054762,37.558042488934
서울 서대문구 창천동 53-82,CE7,카페,음식점 > 카페 > 테마카페 > 북카페,,124990348,,책다방 위숨,http://place.map.kakao.com/124990348,서울 서대문구 연세로9길 34-1,126.934859147423,37.5586613524256
서울 서대문구 창천동 33-19,CE7,카페,음식점 > 카페 > 커피전문점 > 컴포즈커피,,176933825,02-336-1955,컴포즈커피 신촌연세대점,http://place.map.kakao.com/176933825,서울 서대문구 연세로 29-1,126.93674497568178,37.558330810902056
서울 서대문구 창천동 57-25,CE7,카페,음식점 > 카페 > 테마카페 > 고양이카페,,2050841736,070-8899-9997,랙돌고양이카페&분양디캣,http://place.map.kakao.com/2050841736,서울 서대문구 연세로5나길 10,126.935687855747,37.5570607348332
서울 서대문구 창천동 57-8,CE7,카페,"가정,생활 > 여가시설 > 보드카페",,1653896730,0507-1357-0343,데블다이스 보드게임카페 신촌점,http://place.map.kakao.com/1653896730,서울 서대문구 연세로5가길 1,126.936100971775,37.5570321272192
서울 서대문구 창천동 52-46,CE7,카페,음식점 > 카페 > 커피전문점,,405087913,02-6015-7993,안다르커피,http://place.map.kakao.com/405087913,서울 서대문구 연세로9길 25,126.935384508765,37.5584129659297
서울 서대문구 창천동 52-130,CE7,카페,음식점 > 카페 > 테마카페,,97734177,02-336-1777,마스터키프라임 신촌퍼플릭,http://place.map.kakao.com/97734177,서울 서대문구 연세로7안길 20,126.93570496289,37.5582257334808
서울 서대문구 창천동 33-38,CE7,카페,음식점 > 카페,,21394782,,카페포엠,http://place.map.kakao.com/21394782,서울 서대문구 연세로 25,126.9366887603952,37.557889292194965
서울 서대문구 창천동 33-46,CE7,카페,음식점 > 카페 > 테마카페 > 사주카페,,1261422690,010-4946-8837,썸타로사주 신촌본점,http://place.map.kakao.com/1261422690,서울 서대문구 연세로7안길 2,126.93647158374245,37.55774411500169
서울 서대문구 창천동 52-46,CE7,카페,음식점 > 카페 > 테마카페,,912842418,02-332-2478,룸익스케이프 올리브점,http://place.map.kakao.com/912842418,서울 서대문구 연세로9길 25,126.935375463881,37.5584021490149
서울 서대문구 창천동 52-82,CE7,카페,음식점 > 카페,,152685689,02-365-0606,한숨,http://place.map.kakao.com/152685689,서울 서대문구 연세로9길 30,126.93517157999594,37.558591246620296
서울 서대문구 창천동 57-33,CE7,카페,음식점 > 카페 > 테마카페,,690123759,010-8432-5687,룸익스케이프 인디고블루점,http://place.map.kakao.com/690123759,서울 서대문구 연세로5가길 21,126.935426287644,37.5572137616
서울 서대문구 창천동 52-65,CE7,카페,음식점 > 카페 > 테마카페,,42417624,,파노라마 신촌점,http://place.map.kakao.com/42417624,서울 서대문구 연세로7안길 21,126.93555691299,37.557978779564
서울 서대문구 창천동 57-25,CE7,카페,음식점 > 카페 > 테마카페 > 고양이카페,,1621622671,070-8899-9997,랙돌고양이 카페 디캣,http://place.map.kakao.com/1621622671,서울 서대문구 연세로5나길 10,126.935687855747,37.5570607348332
서울 서대문구 창천동 57-25,CE7,카페,음식점 > 카페,,27494806,070-8225-6516,꿈꾸는옥탑,http://place.map.kakao.com/27494806,서울 서대문구 연세로5나길 10,126.935698040789,37.5570616413778
서울 서대문구 창천동 33-36,CE7,카페,음식점 > 카페 > 커피전문점,,1308203630,,만족커피 신촌연세대점,http://place.map.kakao.com/1308203630,서울 서대문구 연세로 25-1,126.93668528885,37.5579793900456
서울 서대문구 창천동 33-47,CE7,카페,음식점 > 카페,,1222243512,02-333-0600,마시그래이 신촌점,http://place.map.kakao.com/1222243512,서울 서대문구 연세로7안길 2,126.936408217772,37.5577287639386
서울 서대문구 창천동 57-57,CE7,카페,음식점 > 카페 > 테마카페 > 라이브카페,,147163161,,멜론콜리,http://place.map.kakao.com/147163161,서울 서대문구 연세로5가길 25,126.935231625776,37.5572127539803
서울 서대문구 창천동 52-43,CE7,카페,음식점 > 카페 > 테마카페 > 라이브카페,,1859262551,02-363-6373,비긴어게인,http://place.map.kakao.com/1859262551,서울 서대문구 연세로7안길 10-3,126.93620178441738,37.558258438875576
서울 서대문구 창천동 52-83,CE7,카페,음식점 > 카페,,301037533,,오늘도빙수앤커피,http://place.map.kakao.com/301037533,서울 서대문구 연세로9길 13,126.936079387196,37.5584520870422
서울 서대문구 창천동 33-38,CE7,카페,음식점 > 카페 > 생과일전문점,,1388004301,,레몬트리,http://place.map.kakao.com/1388004301,서울 서대문구 연세로 25,126.936711418653,37.5578622744286
서울 서대문구 창천동 18-31,CE7,카페,"가정,생활 > 여가시설 > 보드카페 > 레드버튼",,1520672825,02-363-3799,레드버튼 신촌점,http://place.map.kakao.com/1520672825,서울 서대문구 연세로 8,126.93713158887188,37.5561776340198
서울 서대문구 창천동 18-21,CE7,카페,"가정,생활 > 여가시설 > 보드카페 > 홈즈앤루팡",,1280112931,02-365-8282,홈즈앤루팡 신촌점,http://place.map.kakao.com/1280112931,서울 서대문구 연세로 12,126.93720137441,37.5566335758204
서울 서대문구 창천동 18-55,CE7,카페,음식점 > 카페 > 커피전문점 > 스타벅스,,10538396,1522-3232,스타벅스 신촌점,http://place.map.kakao.com/10538396,서울 서대문구 연세로 10-1,126.937110958522,37.5564857641334
서울 서대문구 창천동 18-29,CE7,카페,음식점 > 카페 > 커피전문점 > 커피빈,,10821672,02-363-5572,커피빈 신촌점,http://place.map.kakao.com/10821672,서울 서대문구 연세로 8-1,126.93708737814072,37.55626410622014
서울 서대문구 창천동 20-51,CE7,카페,음식점 > 카페 > 테마카페,,27288806,02-2138-1187,미스터힐링 신촌점,http://place.map.kakao.com/27288806,서울 서대문구 신촌로 119,126.939030691972,37.5561335800724
서울 서대문구 창천동 18-46,CE7,카페,음식점 > 카페 > 커피전문점 > 빽다방,,27227111,02-363-3284,빽다방 신촌역점,http://place.map.kakao.com/27227111,서울 서대문구 연세로2길 6,126.93714768376834,37.555879412443986
서울 서대문구 창천동 18-11,CE7,카페,음식점 > 카페 > 테마카페,,27329834,010-2940-5680,룸익스케이프 블랙점,http://place.map.kakao.com/27329834,서울 서대문구 연세로4길 6,126.9373595812,37.5569183750075
서울 서대문구 창천동 18-29,CE7,카페,음식점 > 카페 > 커피전문점,,1394087762,070-7760-7765,캐치카페 신촌,http://place.map.kakao.com/1394087762,서울 서대문구 연세로 8-1,126.93730574006,37.5563417081432
서울 서대문구 창천동 18-15,CE7,카페,음식점 > 카페,,211351831,,카페앤 신촌점,http://place.map.kakao.com/211351831,서울 서대문구 연세로4길 4,126.937164909478,37.556929984532
서울 서대문구 창천동 18-84,CE7,카페,음식점 > 카페 > 테마카페 > 디저트카페 > 디저트39,,1700220005,,디저트39 신촌역점,http://place.map.kakao.com/1700220005,서울 서대문구 연세로2길 3,126.937131692572,37.5560541974309
서울 서대문구 창천동 29-81,CE7,카페,음식점 > 카페 > 커피전문점,,312644160,070-8657-3675,라떼킹 신촌점,http://place.map.kakao.com/312644160,서울 서대문구 신촌로 109,126.938402804336,37.5558539449751
서울 서대문구 창천동 29-75,CE7,카페,음식점 > 카페 > 바나프레소,,688185412,02-393-1088,바나프레소 신촌역점,http://place.map.kakao.com/688185412,서울 서대문구 신촌로 113,126.938632525943,37.5558801935214
서울 서대문구 창천동 29-16,CE7,카페,음식점 > 카페,,22321058,02-364-0202,작은카페,http://place.map.kakao.com/22321058,서울 서대문구 연세로2길 31,126.938586838596,37.5563892333011
서울 마포구 노고산동 40-36,CE7,카페,음식점 > 카페,,1765469128,0507-1310-4690,리릭스커피컴퍼니,http://place.map.kakao.com/1765469128,서울 마포구 신촌로 116,126.938576405612,37.5553116349247
서울 서대문구 창천동 29-81,CE7,카페,음식점 > 카페 > 테마카페 > 무인카페,,1333365151,,핑거커피 신촌점,http://place.map.kakao.com/1333365151,서울 서대문구 신촌로 109,126.938150430245,37.5558493080567
서울 서대문구 창천동 18-52,CE7,카페,음식점 > 카페 > 테마카페 > 디저트카페,,2111655597,,에잇비돌체 신촌점,http://place.map.kakao.com/2111655597,서울 서대문구 신촌로 99,126.937156897331,37.5556893068856
서울 서대문구 창천동 29-81,CE7,카페,음식점 > 카페 > 테마카페 > 디저트카페,,398802109,010-4157-5016,카페시크릿,http://place.map.kakao.com/398802109,서울 서대문구 신촌로 109,126.9382657234282,37.556024161896694
서울 서대문구 창천동 18-32,CE7,카페,음식점 > 카페 > 테마카페,,161293945,02-363-4300,플로체플라워 신촌1호점,http://place.map.kakao.com/161293945,서울 서대문구 연세로2가길 5,126.937351130604,37.5561975726554
서울 서대문구 창천동 18-34,CE7,카페,음식점 > 카페 > 테마카페,,112070381,,플라체,http://place.map.kakao.com/112070381,서울 서대문구 연세로2가길 5,126.937369253594,37.5561795623223
서울 서대문구 창천동 29-75,CE7,카페,음식점 > 카페,,23612249,,베네피트카페 신촌YBM점,http://place.map.kakao.com/23612249,서울 서대문구 신촌로 113,126.938573609669,37.5559603516573
서울 마포구 노고산동 19-52,CE7,카페,음식점 > 카페,,1424646256,0507-1356-7188,댓커피,http://place.map.kakao.com/1424646256,서울 마포구 백범로1길 60,126.93991627951546,37.555431256023574
서울 서대문구 창천동 20-25,CE7,카페,음식점 > 카페 > 커피전문점 > 스타벅스,,17127080,1522-3232,스타벅스 신촌아트레온점,http://place.map.kakao.com/17127080,서울 서대문구 신촌로 129,126.940393021019,37.5564982786297
서울 마포구 노고산동 40-1,CE7,카페,음식점 > 카페 > 커피전문점 > 투썸플레이스,,804577234,02-719-2588,투썸플레이스 마포노고산점,http://place.map.kakao.com/804577234,서울 마포구 신촌로 128,126.9399295572735,37.55580878072797
서울 서대문구 창천동 20-41,CE7,카페,음식점 > 카페 > 커피전문점 > 메가MGC커피,,1647161658,02-365-6051,메가MGC커피 신촌역점,http://place.map.kakao.com/1647161658,서울 서대문구 신촌로 121,126.939297724929,37.5562057974519
서울 서대문구 창천동 20-99,CE7,카페,음식점 > 카페 > 커피전문점 > 더벤티,,27273250,02-364-8368,더벤티 신촌점,http://place.map.kakao.com/27273250,서울 서대문구 신촌로 125,126.9398488417373,37.556259238348844
서울 서대문구 창천동 20-30,CE7,카페,음식점 > 카페 > 테마카페,,546677102,,어썸차드 신촌점,http://place.map.kakao.com/546677102,서울 서대문구 신촌로 127,126.939967506576,37.5564692311313
서울 서대문구 대현동 104-58,CE7,카페,음식점 > 카페 > 커피전문점,,26002225,,사주카페,http://place.map.kakao.com/26002225,서울 서대문구 신촌로 139-1,126.941429508361,37.5567474726059
서울 서대문구 창천동 20-25,CE7,카페,음식점 > 카페,,21441512,,카페탄츠,http://place.map.kakao.com/21441512,서울 서대문구 신촌로 129,126.940229997368,37.5565630680259
서울 서대문구 창천동 20-25,CE7,카페,음식점 > 카페,,8001589,,에이프릴라임,http://place.map.kakao.com/8001589,서울 서대문구 신촌로 129,126.940343140749,37.5566027691303
서울 서대문구 창천동 20-25,CE7,카페,음식점 > 카페,,10827912,02-365-8264,커피섬,http://place.map.kakao.com/10827912,서울 서대문구 신촌로 129,126.94033866834,37.5565342910721
서울 서대문구 창천동 31-80,CE7,카페,"가정,생활 > 여가시설 > 보드카페 > 히어로보드게임카페",,1968719466,02-6402-5700,히어로보드게임카페 신촌점,http://place.map.kakao.com/1968719466,서울 서대문구 명물길 23,126.937943686926,37.5581386336446
서울 서대문구 창천동 31-4,CE7,카페,음식점 > 카페 > 다방,,18826661,02-363-1222,독수리다방,http://place.map.kakao.com/18826661,서울 서대문구 연세로 36,126.93723126168338,37.558781568940425
서울 서대문구 창천동 13-35,CE7,카페,음식점 > 카페,,8122805,02-392-7523,클로리스 신촌점,http://place.map.kakao.com/8122805,서울 서대문구 연세로4길 38,126.93874867003971,37.557782259130036
서울 서대문구 창천동 13-26,CE7,카페,음식점 > 카페 > 커피전문점,,16418510,02-3147-1327,미네르바,http://place.map.kakao.com/16418510,서울 서대문구 명물길 18,126.9378523866681,37.55768898805463
서울 서대문구 창천동 13-14,CE7,카페,음식점 > 카페 > 커피전문점,,13594462,02-313-7523,에이투지카페,http://place.map.kakao.com/13594462,서울 서대문구 연세로4길 29,126.93830735470554,37.557691929647504
서울 서대문구 창천동 13-19,CE7,카페,음식점 > 카페 > 커피전문점 > 스타벅스,,12695523,1522-3232,스타벅스 신촌명물거리점,http://place.map.kakao.com/12695523,서울 서대문구 명물길 24,126.938155627947,37.5577765440044
서울 서대문구 창천동 18-5,CE7,카페,음식점 > 카페,,9619284,,휴,http://place.map.kakao.com/9619284,서울 서대문구 명물길 6,126.937377339425,37.5573364471509
서울 서대문구 창천동 18-8,CE7,카페,음식점 > 카페,,20526285,,카페 나무,http://place.map.kakao.com/20526285,서울 서대문구 명물길 2,126.937205396361,37.5572354441408
서울 서대문구 창천동 5-58,CE7,카페,음식점 > 카페,,2020240735,070-7543-6627,포티드,http://place.map.kakao.com/2020240735,서울 서대문구 명물길 36-3,126.938816185683,37.5582598226086
서울 서대문구 창천동 31-12,CE7,카페,음식점 > 카페 > 커피전문점 > 할리스,,21325305,02-393-2004,할리스 신촌점,http://place.map.kakao.com/21325305,서울 서대문구 연세로 34,126.937072945374,37.5586229091958
서울 서대문구 창천동 31-27,CE7,카페,음식점 > 카페 > 커피전문점 > 투썸플레이스,,1402782800,02-6959-0262,투썸플레이스 신촌연세로점,http://place.map.kakao.com/1402782800,서울 서대문구 연세로 28,126.937118664847,37.5580895432947
서울 서대문구 창천동 50-19,CE7,카페,음식점 > 카페 > 테마카페 > 디저트카페,,177773556,070-8800-2409,라플로레종,http://place.map.kakao.com/177773556,서울 서대문구 명물1길 28,126.937419259038,37.5586366082173
서울 서대문구 창천동 5-39,CE7,카페,음식점 > 카페,,12591155,,초코블로썸,http://place.map.kakao.com/12591155,서울 서대문구 명물길 50-4,126.939196236748,37.5585375260353
서울 서대문구 창천동 5-62,CE7,카페,음식점 > 카페,,17358576,070-4062-2788,마이시크릿메이트,http://place.map.kakao.com/17358576,서울 서대문구 연세로4길 47,126.93907653072309,37.558214907378556
서울 서대문구 창천동 13-29,CE7,카페,음식점 > 카페 > 바나프레소,,930505287,070-8998-8981,바나프레소 신촌점,http://place.map.kakao.com/930505287,서울 서대문구 명물길 14,126.93767370034,37.5575294173655
서울 서대문구 창천동 9-20,CE7,카페,음식점 > 카페,,1430301098,,카페 플레이스,http://place.map.kakao.com/1430301098,서울 서대문구 연세로 20,126.937062593033,37.5574750333645
서울 서대문구 창천동 41-6,CE7,카페,음식점 > 카페 > 테마카페,,72705514,0507-1317-4291,탐정크루 신촌2호점,http://place.map.kakao.com/72705514,서울 서대문구 명물길 19,126.93761216289217,37.55803574526339
서울 서대문구 창천동 31-20,CE7,카페,음식점 > 카페 > 생과일전문점 > 쥬씨,,1435026930,,쥬씨 신촌점,http://place.map.kakao.com/1435026930,서울 서대문구 연세로 30,126.93708225417357,37.55832017915067
서울 서대문구 창천동 18-1,CE7,카페,음식점 > 카페,,505994572,,삼층카페,http://place.map.kakao.com/505994572,서울 서대문구 명물길 10,126.937522138696,37.5574158116159
서울 서대문구 창천동 13-50,CE7,카페,음식점 > 카페,,26830994,070-8251-8179,콩,http://place.map.kakao.com/26830994,서울 서대문구 연세로4길 24,126.938183111928,37.5573873276143
서울 서대문구 창천동 13-111,CE7,카페,음식점 > 카페,,1580106975,070-8230-8958,플릭온커피,http://place.map.kakao.com/1580106975,서울 서대문구 연세로4길 40,126.938873068866,37.5578994532281
서울 서대문구 창천동 13-8,CE7,카페,음식점 > 카페 > 테마카페 > 디저트카페,,1313432169,,10593베이글커피하우스 신촌점,http://place.map.kakao.com/1313432169,서울 서대문구 명물길 28,126.93827878184553,37.55802978864214
서울 서대문구 창천동 13-1,CE7,카페,음식점 > 카페 > 테마카페 > 사주카페,,606314892,,사주랑타로랑,http://place.map.kakao.com/606314892,서울 서대문구 명물길 34,126.93851745026,37.5581947956353
서울 서대문구 창천동 41-14,CE7,카페,음식점 > 카페,,27301657,,샤갈의눈내리는마을,http://place.map.kakao.com/27301657,서울 서대문구 명물길 21,126.93767546108,37.5581330863803
서울 서대문구 창천동 13-5,CE7,카페,음식점 > 카페,,10053773,02-365-8910,화수목,http://place.map.kakao.com/10053773,서울 서대문구 연세로4길 39,126.938676126114,37.5579173710456
서울 서대문구 창천동 18-5,CE7,카페,"가정,생활 > 여가시설 > 보드카페",,15730796,070-8793-3538,펀타임,http://place.map.kakao.com/15730796,서울 서대문구 명물길 6,126.937404522804,37.5573112336432
서울 서대문구 창천동 18-8,CE7,카페,음식점 > 카페,,2125296694,,카페테라스,http://place.map.kakao.com/2125296694,서울 서대문구 명물길 2,126.937196356649,37.5572183203854
서울 서대문구 창천동 31-30,CE7,카페,음식점 > 카페,,1398968996,02-363-2325,차미리 연대점,http://place.map.kakao.com/1398968996,서울 서대문구 연세로 26,126.937123358498,37.5578913264289
서울 서대문구 창천동 18-1,CE7,카페,"가정,생활 > 여가시설 > 보드카페",,15326532,02-313-2142,펀까페,http://place.map.kakao.com/15326532,서울 서대문구 명물길 10,126.93753120784,37.5573977964704
서울 서대문구 창천동 5-94,CE7,카페,음식점 > 카페,,16051017,02-312-3126,예스터데이,http://place.map.kakao.com/16051017,서울 서대문구 연세로4길 48,126.939201118193,37.5581014459651
서울 서대문구 창천동 31-20,CE7,카페,음식점 > 카페 > 차얌,,295134646,,차얌 신촌점,http://place.map.kakao.com/295134646,서울 서대문구 연세로 30,126.937132094725,37.5582697498637
서울 서대문구 창천동 5-56,CE7,카페,음식점 > 카페 > 테마카페 > 사주카페,,27481409,02-393-8465,행복별사주카페,http://place.map.kakao.com/27481409,서울 서대문구 명물길 36,126.938644143991,37.5582741492842
서울 서대문구 창천동 5-49,CE7,카페,음식점 > 카페,,27248614,,소설,http://place.map.kakao.com/27248614,서울 서대문구 연세로4길 51,126.939170402112,37.55829604551612
서울 서대문구 창천동 13-5,CE7,카페,음식점 > 카페,,9072792,02-364-5844,버슴새,http://place.map.kakao.com/9072792,서울 서대문구 연세로4길 39,126.938671599033,37.5579173686942
서울 서대문구 창천동 5-87,CE7,카페,음식점 > 카페,,8549805,,카사블랑카,http://place.map.kakao.com/8549805,서울 서대문구 연세로4길 50,126.939192061079,37.5581050452893
서울 서대문구 창천동 31-26,CE7,카페,음식점 > 카페,,547483377,,셀프커피숍,http://place.map.kakao.com/547483377,서울 서대문구 명물1길 2,126.937277363786,37.5577904966626
서울 서대문구 창천동 5-49,CE7,카페,음식점 > 카페 > 커피전문점,,15942444,,허밍,http://place.map.kakao.com/15942444,서울 서대문구 연세로4길 51,126.939160189755,37.558328476149
서울 서대문구 창천동 45-9,CE7,카페,음식점 > 카페,,26637286,070-4323-6684,브랜드집카페,http://place.map.kakao.com/26637286,서울 서대문구 명물길 27-18,126.938114177885,37.5586306675246
서울 서대문구 창천동 13-44,CE7,카페,음식점 > 카페,,723257410,,카페애니,http://place.map.kakao.com/723257410,서울 서대문구 연세로4길 28,126.938350531091,37.5574865248421
서울 서대문구 창천동 5-41,CE7,카페,음식점 > 카페,,1825910645,,그래인바운더리,http://place.map.kakao.com/1825910645,서울 서대문구 명물길 50-6,126.939325265477,37.5585303844362
서울 서대문구 창천동 4-113,CE7,카페,음식점 > 카페,,193971778,02-330-4394,카페바람,http://place.map.kakao.com/193971778,서울 서대문구 연세로2나길 57,126.93981579490435,37.55794769037941
서울 서대문구 창천동 5-32,CE7,카페,음식점 > 카페 > 테마카페 > 무인카페,,339685712,,패스트카페 신촌점,http://place.map.kakao.com/339685712,서울 서대문구 연세로4길 61,126.93954932872,37.5585665392494
